     2.100          NAVIGATION                              RINEX VERSION / TYPE
fic2rin                                 04/21/2014 00:46:10 PGM / RUN BY / DATE
                                                            END OF HEADER
13 14  4 20 14  0  0.0  .779470428824D-05 -.397903932026D-11  .000000000000D+00
     .760000000000D+02  .732500000000D+02  .408767026787D-08  .251857426132D+01
     .402517616749D-05  .535487849265D-02  .102743506432D-04  .515360957336D+04
     .504000000000D+05  .931322574615D-07  .112808445009D+01  .447034835815D-07
     .977906711888D+00  .188500000000D+03  .223021742103D+01 -.778353850134D-08
    -.197865384745D-09  .100000000000D+01  .178900000000D+04  .000000000000D+00
     .240000000000D+01  .000000000000D+00 -.111758708954D-07  .760000000000D+02
     .432060000000D+05  .400000000000D+01
15 14  4 20 14  0  0.0 -.174968037754D-03 -.216004991671D-11  .000000000000D+00
     .520000000000D+02  .613437500000D+02  .506271088223D-08  .225662717975D+01
     .322796404362D-05  .625346472953D-02  .984035432339D-05  .515368165588D+04
     .504000000000D+05 -.145286321640D-06  .985659377492D+00  .707805156708D-07
     .937156199837D+00  .179750000000D+03  .271994802315D+00 -.819391273793D-08
    -.193222334200D-09  .100000000000D+01  .178900000000D+04  .000000000000D+00
     .240000000000D+01  .000000000000D+00 -.102445483208D-07  .520000000000D+02
     .432060000000D+05  .400000000000D+01
16 14  4 20 14  0  0.0 -.222325325012D-03  .181898940355D-11  .000000000000D+00
     .770000000000D+02 -.879687500000D+02  .393730686178D-08 -.239958473990D+01
    -.450573861599D-05  .772129709367D-02  .513531267643D-05  .515357526207D+04
     .504000000000D+05 -.465661287308D-07 -.310920197374D+01 -.223517417908D-07
     .988140322708D+00  .296812500000D+03  .184370997918D+00 -.797390357366D-08
    -.148934775160D-09  .100000000000D+01  .178900000000D+04  .000000000000D+00
     .240000000000D+01  .000000000000D+00 -.102445483208D-07  .770000000000D+02
     .432060000000D+05  .400000000000D+01
17 14  4 20 14  0  0.0 -.866092741489D-04 -.306954461848D-11  .000000000000D+00
     .430000000000D+02 -.600312500000D+02  .398123726308D-08  .292383031059D+01
    -.307150185108D-05  .929631118197D-02  .997446477413D-05  .515358233833D+04
     .504000000000D+05  .502914190292D-07 -.207712919853D+01 -.707805156708D-07
     .968158617247D+00  .190062500000D+03 -.210380166223D+01 -.761067415798D-08
     .295012288446D-09  .100000000000D+01  .178900000000D+04  .000000000000D+00
     .240000000000D+01  .000000000000D+00 -.102445483208D-07  .430000000000D+02
     .432060000000D+05  .400000000000D+01
18 14  4 20 14  0  0.0  .314396340400D-03  .238742359215D-11  .000000000000D+00
     .250000000000D+02 -.421875000000D+01  .557666086174D-08 -.173728533533D+01
    -.115483999252D-06  .150976830628D-01  .710599124432D-05  .515367976761D+04
     .504000000000D+05  .273808836937D-06 -.332957887318D-01  .670552253723D-07
     .926339557647D+00  .217968750000D+03 -.204662895555D+01 -.831534636755D-08
    -.172864343351D-09  .100000000000D+01  .178900000000D+04  .000000000000D+00
     .240000000000D+01  .000000000000D+00 -.111758708954D-07  .250000000000D+02
     .432060000000D+05  .400000000000D+01
19 14  4 20 14  0  0.0 -.452158041298D-03 -.227373675443D-11  .000000000000D+00
     .510000000000D+02 -.742187500000D+02  .411267130927D-08  .215866706622D+01
    -.373646616936D-05  .101890503429D-01  .105500221252D-04  .515361224937D+04
     .504000000000D+05 -.199303030968D-06 -.202619110491D+01  .279396772385D-07
     .965258328027D+00  .179312500000D+03  .415671784615D+00 -.786139888739D-08
     .280368821344D-09  .100000000000D+01  .178900000000D+04  .000000000000D+00
     .240000000000D+01  .000000000000D+00 -.149011611938D-07  .510000000000D+02
     .432060000000D+05  .400000000000D+01
20 14  4 20 14  0  0.0  .181511975825D-03  .375166564481D-11  .000000000000D+00
     .500000000000D+02 -.328125000000D+01  .570952353886D-08 -.120149567473D+01
    -.745058059692D-08  .582829921041D-02  .727735459805D-05  .515380512238D+04
     .504000000000D+05  .931322574615D-08 -.863924238255D-01  .134110450745D-06
     .927299050505D+00  .225093750000D+03  .133328692455D+01 -.858000024859D-08
    -.209651589973D-09  .100000000000D+01  .178900000000D+04  .000000000000D+00
     .240000000000D+01  .000000000000D+00 -.838190317154D-08  .500000000000D+02
     .432060000000D+05  .400000000000D+01
21 14  4 20 14  0  0.0 -.356445088983D-03 -.227373675443D-11  .000000000000D+00
     .220000000000D+02  .178437500000D+02  .554915971620D-08 -.753282833985D+00
     .135786831379D-05  .214194481960D-01  .743754208088D-05  .515376236343D+04
     .504000000000D+05 -.521540641785D-07 -.107858972119D+01  .437721610069D-06
     .932051609062D+00  .225187500000D+03 -.203657155321D+01 -.880536677887D-08
     .470019578202D-09  .100000000000D+01  .178900000000D+04  .000000000000D+00
     .240000000000D+01  .000000000000D+00 -.111758708954D-07  .220000000000D+02
     .432060000000D+05  .400000000000D+01
22 14  4 20 14  0  0.0  .228239689022D-03  .295585778076D-11  .000000000000D+00
     .330000000000D+02 -.871875000000D+01  .566130724474D-08 -.229095358549D+01
    -.577419996262D-06  .707180693280D-02  .733695924282D-05  .515372184372D+04
     .504000000000D+05  .128522515297D-06 -.313411809603D-01  .484287738800D-07
     .924111625576D+00  .214906250000D+03 -.206289715026D+01 -.844320883640D-08
    -.196793911542D-09  .100000000000D+01  .178900000000D+04  .000000000000D+00
     .240000000000D+01  .000000000000D+00 -.172294676304D-07  .330000000000D+02
     .432060000000D+05  .400000000000D+01
23 14  4 20 14  0  0.0 -.139460898936D-04 -.318323145621D-11  .000000000000D+00
     .410000000000D+02  .607812500000D+02  .470626746350D-08  .183278651764D+01
     .334531068802D-05  .914615555666D-02  .107772648335D-04  .515357295036D+04
     .504000000000D+05 -.154599547386D-06  .103178553124D+01  .154599547386D-06
     .952183367494D+00  .170281250000D+03 -.279251067192D+01 -.815783980677D-08
    -.281440294547D-09  .100000000000D+01  .178900000000D+04  .000000000000D+00
     .240000000000D+01  .000000000000D+00 -.200234353542D-07  .410000000000D+02
     .432060000000D+05  .400000000000D+01
25 14  4 20 14  0  0.0  .222232192755D-04  .909494701773D-12  .000000000000D+00
     .500000000000D+02 -.762500000000D+02  .422696178421D-08 -.101593652547D+01
    -.402890145779D-05  .349821895361D-02  .491738319397D-05  .515362328148D+04
     .504000000000D+05  .763684511185D-07  .311347520280D+01  .130385160446D-07
     .976242696701D+00  .292906250000D+03  .647660230585D+00 -.815069665209D-08
    -.270011247052D-09  .100000000000D+01  .178900000000D+04  .000000000000D+00
     .240000000000D+01  .000000000000D+00  .512227416039D-08  .500000000000D+02
     .432060000000D+05  .400000000000D+01
26 14  4 20 14  0  0.0  .103057827801D-03 -.114823706099D-10  .000000000000D+00
     .870000000000D+02  .639062500000D+02  .416053044565D-08  .172026419570D+01
     .292621552944D-05  .214492119849D-01  .971928238869D-05  .515369541359D+04
     .504000000000D+05 -.186264514923D-06  .111946826052D+01 -.497326254845D-06
     .975306202378D+00  .200593750000D+03  .127769651152D+01 -.779353891789D-08
    -.111076055335D-09  .100000000000D+01  .178900000000D+04  .000000000000D+00
     .240000000000D+01  .000000000000D+00 -.605359673500D-08  .870000000000D+02
     .432060000000D+05  .400000000000D+01
27 14  4 20 14  0  0.0 -.192560255527D-04  .102318153949D-11  .000000000000D+00
     .180000000000D+02 -.724375000000D+02  .419267464173D-08  .307685832231D+01
    -.359304249287D-05  .111043150537D-02  .106263905764D-04  .515367895889D+04
     .504000000000D+05  .204890966415D-07 -.212244410422D+01  .186264514923D-08
     .962911696246D+00  .175218750000D+03  .677804675800D-01 -.791247244338D-08
     .280725979078D-09  .100000000000D+01  .178900000000D+04  .000000000000D+00
     .240000000000D+01  .000000000000D+00  .186264514923D-08  .180000000000D+02
     .432060000000D+05  .400000000000D+01
28 14  4 20 14  0  0.0  .348721165210D-03  .284217094304D-11  .000000000000D+00
     .560000000000D+02 -.763750000000D+02  .375872799468D-08 -.250065729503D+01
    -.389851629734D-05  .191378884483D-01  .489503145218D-05  .515367102814D+04
     .504000000000D+05  .232830643654D-06 -.310338287183D+01 -.502914190292D-07
     .986658769978D+00  .296656250000D+03 -.171692165026D+01 -.756960101855D-08
    -.109290266664D-09  .100000000000D+01  .178900000000D+04  .000000000000D+00
     .340000000000D+01  .000000000000D+00 -.107102096081D-07  .560000000000D+02
     .432060000000D+05  .400000000000D+01
29 14  4 20 14  0  0.0  .526801683009D-03  .272848410532D-11  .000000000000D+00
     .360000000000D+02 -.593437500000D+02  .404338270883D-08 -.526710284832D+00
    -.307522714138D-05  .165465695318D-02  .108033418655D-04  .515372502899D+04
     .504000000000D+05 -.134110450745D-06 -.206809846479D+01 -.521540641785D-07
     .968878602620D+00  .175937500000D+03 -.925013739861D+00 -.776032324861D-08
     .260367988229D-09  .100000000000D+01  .178900000000D+04  .000000000000D+00
     .240000000000D+01  .000000000000D+00 -.977888703346D-08  .360000000000D+02
     .432060000000D+05  .400000000000D+01
31 14  4 20 14  0  0.0  .334231648594D-03  .000000000000D+00  .000000000000D+00
     .790000000000D+02  .707812500000D+02  .431625121776D-08  .391516362171D-01
     .358186662197D-05  .804432469886D-02  .434741377831D-05  .515353421211D+04
     .504000000000D+05  .596046447754D-07  .209915538906D+01 -.132247805595D-06
     .978458135452D+00  .307375000000D+03 -.639551563867D+00 -.832856120372D-08
     .425017703693D-10  .100000000000D+01  .178900000000D+04  .000000000000D+00
     .240000000000D+01  .000000000000D+00 -.130385160446D-07  .790000000000D+02
     .432060000000D+05  .400000000000D+01
